ONEWEB-0403             
1 50483U 21132Q   24361.75945735  .00000078  00000+0  16567-3 0  9992
2 50483  87.9105  82.3809 0001865 102.5317 257.6024 13.18685219152043
ONEWEB-0404             
1 50484U 21132R   24361.74445485  .00000418  00000+0  11439-2 0  9999
2 50484  87.8909 128.1709 0001907  97.7652 262.3693 13.11417281146523
ONEWEB-0405             
1 50485U 21132S   24361.69939125  .00000011  00000+0 -54117-5 0  9996
2 50485  87.9106  82.3828 0001634  93.5454 266.5865 13.18685552152448
ONEWEB-0406             
1 50486U 21132T   24361.68832932  .00000014  00000+0  21022-5 0  9995
2 50486  87.9109  82.4009 0002398 109.4724 250.6668 13.18685450152070
ONEWEB-0407             
1 50487U 21132U   24361.53025012  .00000056  00000+0  10835-3 0  9997
2 50487  87.9103  82.4253 0001727  97.5706 262.5622 13.18685501150705
ONEWEB-0409             
1 50488U 21132V   24361.59018248  .00000439  00000+0  12031-2 0  9991
2 50488  87.8901 128.1813 0001882 106.3236 253.8099 13.11415893145129
ONEWEB-0412             
1 50489U 21132W   24361.74680854  .00000040  00000+0  68606-4 0  9996
2 50489  87.9108  82.3910 0001496  91.9971 268.1333 13.18684647152103
ONEWEB-0413             
1 50490U 21132X   24361.52391541  .00000084  00000+0  18015-3 0  9992
2 50490  87.9108  82.4476 0001441  95.2797 264.8500 13.18684979150730
